{
  "links" : {
    "next" : "https://api.nasa.gov/neo/rest/v1/feed?start_date=1999-06-09&end_date=1999-06-09&detailed=true&api_key=t0TVs3DtDT2H8Oy2Zy8m2eVrNsAVKAexjcZXUckd",
    "prev" : "https://api.nasa.gov/neo/rest/v1/feed?start_date=1999-06-07&end_date=1999-06-07&detailed=true&api_key=t0TVs3DtDT2H8Oy2Zy8m2eVrNsAVKAexjcZXUckd",
    "self" : "https://api.nasa.gov/neo/rest/v1/feed?start_date=1999-06-08&end_date=1999-06-08&detailed=true&api_key=t0TVs3DtDT2H8Oy2Zy8m2eVrNsAVKAexjcZXUckd"
  },
  "element_count" : 4,
  "near_earth_objects" : {
    "1999-06-08" : [ {
      "links" : {
        "self" : "https://api.nasa.gov/neo/rest/v1/neo/3019647?api_key=t0TVs3DtDT2H8Oy2Zy8m2eVrNsAVKAexjcZXUckd"
      },
      "neo_reference_id" : "3019647",
      "name" : "(1999 LX1)",
      "nasa_jpl_url" : "http://ssd.jpl.nasa.gov/sbdb.cgi?sstr=3019647",
      "absolute_magnitude_h" : 20.6,
      "estimated_diameter" : {
        "kilometers" : {
          "estimated_diameter_min" : 0.2016299194,
          "estimated_diameter_max" : 0.4508582062
        },
        "meters" : {
          "estimated_diameter_min" : 201.6299194428,
          "estimated_diameter_max" : 450.8582061718
        },
        "miles" : {
          "estimated_diameter_min" : 0.1252869847,
          "estimated_diameter_max" : 0.2801502144
        },
        "feet" : {
          "estimated_diameter_min" : 661.5155049046,
          "estimated_diameter_max" : 1479.1936371367
        }
      },
      "is_potentially_hazardous_asteroid" : true,
      "close_approach_data" : [ {
        "close_approach_date" : "1999-06-08",
        "epoch_date_close_approach" : 928825200000,
        "relative_velocity" : {
          "kilometers_per_second" : "23.9147669638",
          "kilometers_per_hour" : "86093.1610697923",
          "miles_per_hour" : "53494.942221394"
        },
        "miss_distance" : {
          "astronomical" : "0.0645784538",
          "lunar" : "25.1210174561",
          "kilometers" : "9660799",
          "miles" : "6002942"
        },
        "orbiting_body" : "Earth"
      } ],
      "orbital_data" : {
        "orbit_id" : "16",
        "orbit_determination_date" : "2017-04-06 09:17:26",
        "orbit_uncertainty" : "9",
        "minimum_orbit_intersection" : ".0242275",
        "jupiter_tisserand_invariant" : "5.080",
        "epoch_osculation" : "2451340.5",
        "eccentricity" : ".7267641884479905",
        "semi_major_axis" : "1.164488520677936",
        "inclination" : "19.80369423949089",
        "ascending_node_longitude" : "251.9948600700529",
        "orbital_period" : "458.9879081858932",
        "perihelion_distance" : ".3181799659904349",
        "perihelion_argument" : "133.355998537982",
        "aphelion_distance" : "2.010797075365438",
        "perihelion_time" : "2451390.088552553110",
        "mean_anomaly" : "321.1059929886226",
        "mean_motion" : ".7843343878553716",
        "equinox" : "J2000"
      }
    }, {
      "links" : {
        "self" : "https://api.nasa.gov/neo/rest/v1/neo/2363505?api_key=t0TVs3DtDT2H8Oy2Zy8m2eVrNsAVKAexjcZXUckd"
      },
      "neo_reference_id" : "2363505",
      "name" : "363505 (2003 UC20)",
      "nasa_jpl_url" : "http://ssd.jpl.nasa.gov/sbdb.cgi?sstr=2363505",
      "absolute_magnitude_h" : 18.1,
      "estimated_diameter" : {
        "kilometers" : {
          "estimated_diameter_min" : 0.6376097899,
          "estimated_diameter_max" : 1.4257388333
        },
        "meters" : {
          "estimated_diameter_min" : 637.6097898754,
          "estimated_diameter_max" : 1425.7388332807
        },
        "miles" : {
          "estimated_diameter_min" : 0.3961922327,
          "estimated_diameter_max" : 0.8859127646
        },
        "feet" : {
          "estimated_diameter_min" : 2091.8957030147,
          "estimated_diameter_max" : 4677.6209937807
        }
      },
      "is_potentially_hazardous_asteroid" : true,
      "close_approach_data" : [ {
        "close_approach_date" : "1999-06-08",
        "epoch_date_close_approach" : 928825200000,
        "relative_velocity" : {
          "kilometers_per_second" : "18.3647303038",
          "kilometers_per_hour" : "66113.0290937909",
          "miles_per_hour" : "41080.0652166391"
        },
        "miss_distance" : {
          "astronomical" : "0.4970717578",
          "lunar" : "193.3609008789",
          "kilometers" : "74360872",
          "miles" : "46205704"
        },
        "orbiting_body" : "Earth"
      } ],
      "orbital_data" : {
        "orbit_id" : "236",
        "orbit_determination_date" : "2017-04-06 09:22:44",
        "orbit_uncertainty" : "0",
        "minimum_orbit_intersection" : ".0345132",
        "jupiter_tisserand_invariant" : "7.388",
        "epoch_osculation" : "2455026.5",
        "eccentricity" : ".3367760294257492",
        "semi_major_axis" : ".7813002455679843",
        "inclination" : "3.794750521346799",
        "ascending_node_longitude" : "188.8616900718955",
        "orbital_period" : "252.2466272629769",
        "perihelion_distance" : ".5181770510762358",
        "perihelion_argument" : "59.28970787934009",
        "aphelion_distance" : "1.044423440059733",
        "perihelion_time" : "2455117.282730524735",
        "mean_anomaly" : "230.4371854501246",
        "mean_motion" : "1.427174681803321",
        "equinox" : "J2000"
      }
    }, {
      "links" : {
        "self" : "https://api.nasa.gov/neo/rest/v1/neo/2380476?api_key=t0TVs3DtDT2H8Oy2Zy8m2eVrNsAVKAexjcZXUckd"
      },
      "neo_reference_id" : "2380476",
      "name" : "380476 (2003 YO1)",
      "nasa_jpl_url" : "http://ssd.jpl.nasa.gov/sbdb.cgi?sstr=2380476",
      "absolute_magnitude_h" : 19.4,
      "estimated_diameter" : {
        "kilometers" : {
          "estimated_diameter_min" : 0.3503926411,
          "estimated_diameter_max" : 0.7835017643
        },
        "meters" : {
          "estimated_diameter_min" : 350.3926411083,
          "estimated_diameter_max" : 783.5017643338
        },
        "miles" : {
          "estimated_diameter_min" : 0.2177238258,
          "estimated_diameter_max" : 0.4868452748
        },
        "feet" : {
          "estimated_diameter_min" : 1149.5821926537,
          "estimated_diameter_max" : 2570.543928497
        }
      },
      "is_potentially_hazardous_asteroid" : false,
      "close_approach_data" : [ {
        "close_approach_date" : "1999-06-08",
        "epoch_date_close_approach" : 928825200000,
        "relative_velocity" : {
          "kilometers_per_second" : "14.4475735874",
          "kilometers_per_hour" : "52011.264914474",
          "miles_per_hour" : "32317.7773575519"
        },
        "miss_distance" : {
          "astronomical" : "0.2932399798",
          "lunar" : "114.070350647",
          "kilometers" : "43868076",
          "miles" : "27258360"
        },
        "orbiting_body" : "Earth"
      } ],
      "orbital_data" : {
        "orbit_id" : "41",
        "orbit_determination_date" : "2017-04-06 09:22:17",
        "orbit_uncertainty" : "0",
        "minimum_orbit_intersection" : ".227586",
        "jupiter_tisserand_invariant" : "5.332",
        "epoch_osculation" : "2458000.5",
        "eccentricity" : ".3992184607819257",
        "semi_major_axis" : "1.157832447764802",
        "inclination" : "14.25884494241458",
        "ascending_node_longitude" : "65.16615165474393",
        "orbital_period" : "455.0582594446171",
        "perihelion_distance" : ".695604360124768",
        "perihelion_argument" : "161.418773741838",
        "aphelion_distance" : "1.620060535404835",
        "perihelion_time" : "2458143.986922282728",
        "mean_anomaly" : "246.4864202556707",
        "mean_motion" : ".7911074956410363",
        "equinox" : "J2000"
      }
    }, {
      "links" : {
        "self" : "https://api.nasa.gov/neo/rest/v1/neo/3402205?api_key=t0TVs3DtDT2H8Oy2Zy8m2eVrNsAVKAexjcZXUckd"
      },
      "neo_reference_id" : "3402205",
      "name" : "(2008 CF22)",
      "nasa_jpl_url" : "http://ssd.jpl.nasa.gov/sbdb.cgi?sstr=3402205",
      "absolute_magnitude_h" : 26.0,
      "estimated_diameter" : {
        "kilometers" : {
          "estimated_diameter_min" : 0.0167708462,
          "estimated_diameter_max" : 0.0375007522
        },
        "meters" : {
          "estimated_diameter_min" : 16.7708462163,
          "estimated_diameter_max" : 37.5007521798
        },
        "miles" : {
          "estimated_diameter_min" : 0.0104209175,
          "estimated_diameter_max" : 0.0233018799
        },
        "feet" : {
          "estimated_diameter_min" : 55.0224631002,
          "estimated_diameter_max" : 123.0339677816
        }
      },
      "is_potentially_hazardous_asteroid" : false,
      "close_approach_data" : [ {
        "close_approach_date" : "1999-06-08",
        "epoch_date_close_approach" : 928825200000,
        "relative_velocity" : {
          "kilometers_per_second" : "20.953744668",
          "kilometers_per_hour" : "75433.4808048918",
          "miles_per_hour" : "46871.4314479062"
        },
        "miss_distance" : {
          "astronomical" : "0.3137618909",
          "lunar" : "122.0533752441",
          "kilometers" : "46938112",
          "miles" : "29165990"
        },
        "orbiting_body" : "Earth"
      } ],
      "orbital_data" : {
        "orbit_id" : "8",
        "orbit_determination_date" : "2017-04-06 09:04:27",
        "orbit_uncertainty" : "7",
        "minimum_orbit_intersection" : ".000197198",
        "jupiter_tisserand_invariant" : "3.595",
        "epoch_osculation" : "2458000.5",
        "eccentricity" : ".5638939088723222",
        "semi_major_axis" : "2.029558567029484",
        "inclination" : "2.133643882607128",
        "ascending_node_longitude" : "141.7035047851245",
        "orbital_period" : "1056.08970561064",
        "perihelion_distance" : ".8851028533819194",
        "perihelion_argument" : "43.78512999842052",
        "aphelion_distance" : "3.174014280677048",
        "perihelion_time" : "2457707.008325885996",
        "mean_anomaly" : "100.045481098549",
        "mean_motion" : ".3408801336547874",
        "equinox" : "J2000"
      }
    } ]
  }
}